{
    "element_count": 14,
    "links": {
        "next": "http://www.neowsapp.com/rest/v1/feed?start_date=2019-10-29&end_date=2019-10-29&detailed=true&api_key=13L6o25sYaUm7Ac1Op2e09FrWudmH6N0rRhVBoCx",
        "prev": "http://www.neowsapp.com/rest/v1/feed?start_date=2019-10-27&end_date=2019-10-27&detailed=true&api_key=13L6o25sYaUm7Ac1Op2e09FrWudmH6N0rRhVBoCx",
        "self": "http://www.neowsapp.com/rest/v1/feed?start_date=2019-10-28&end_date=2019-10-28&detailed=true&api_key=13L6o25sYaUm7Ac1Op2e09FrWudmH6N0rRhVBoCx"
    },
    "near_earth_objects": {
        "2019-10-28": [
            {
                "absolute_magnitude_h": 22.1,
                "close_approach_data": [
                    {
                        "close_approach_date": "2019-10-28",
                        "close_approach_date_full": "2019-Oct-28 17:28",
                        "epoch_date_close_approach": 1572283680000,
                        "miss_distance": {
                            "astronomical": "0.1149175441",
                            "kilometers": "17191419.822991067",
                            "lunar": "44.7029246549",
                            "miles": "10682252.9353560446"
                        },
                        "orbiting_body": "Earth",
                        "relative_velocity": {
                            "kilometers_per_hour": "49515.2242917851",
                            "kilometers_per_second": "13.7542289699",
                            "miles_per_hour": "30766.8347828595"
                        }
                    }
                ],
                "estimated_diameter": {
                    "feet": {
                        "estimated_diameter_max": 741.3529669956,
                        "estimated_diameter_min": 331.5431259047
                    },
                    "kilometers": {
                        "estimated_diameter_max": 0.2259643771,
                        "estimated_diameter_min": 0.1010543415
                    },
                    "meters": {
                        "estimated_diameter_max": 225.9643771094,
                        "estimated_diameter_min": 101.054341542
                    },
                    "miles": {
                        "estimated_diameter_max": 0.140407711,
                        "estimated_diameter_min": 0.0627922373
                    }
                },
                "id": "3256321",
                "is_potentially_hazardous_asteroid": false,
                "is_sentry_object": false,
                "links": {
                    "self": "http://www.neowsapp.com/rest/v1/neo/3256321?api_key=13L6o25sYaUm7Ac1Op2e09FrWudmH6N0rRhVBoCx"
                },
                "name": "(2004 TD10)",
                "nasa_jpl_url": "http://ssd.jpl.nasa.gov/sbdb.cgi?sstr=3256321",
                "neo_reference_id": "3256321",
                "orbital_data": {
                    "aphelion_distance": "1.0836316477236",
                    "ascending_node_longitude": "48.15772180617327",
                    "data_arc_in_days": 5466,
                    "eccentricity": ".4426651054972506",
                    "epoch_osculation": "2458600.5",
                    "equinox": "J2000",
                    "first_observation_date": "2004-10-07",
                    "inclination": "2.624882935348298",
                    "jupiter_tisserand_invariant": "7.608",
                    "last_observation_date": "2019-09-25",
                    "mean_anomaly": "335.82210597992",
                    "mean_motion": "1.514013838251311",
                    "minimum_orbit_intersection": ".0120199",
                    "observations_used": 164,
                    "orbit_class": {
                        "orbit_class_description": "Near-Earth asteroid orbits similar to that of 2062 Aten",
                        "orbit_class_range": "a (semi-major axis) < 1.0 AU; q (perihelion) > 0.983 AU",
                        "orbit_class_type": "ATE"
                    },
                    "orbit_determination_date": "2019-09-26 07:37:17",
                    "orbit_id": "30",
                    "orbit_uncertainty": "0",
                    "orbital_period": "237.7785400005331",
                    "perihelion_argument": "136.9541199291058",
                    "perihelion_distance": ".4186319664643917",
                    "perihelion_time": "2458616.469400945506",
                    "semi_major_axis": ".7511318070939959"
                }
            },
            {
                "absolute_magnitude_h": 23.3,
                "close_approach_data": [
                    {
                        "close_approach_date": "2019-10-28",
                        "close_approach_date_full": "2019-Oct-28 22:15",
                        "epoch_date_close_approach": 1572300900000,
                        "miss_distance": {
                            "astronomical": "0.3641851992",
                            "kilometers": "54481330.085845704",
                            "lunar": "141.6680424888",
                            "miles": "33853128.7249065552"
                        },
                        "orbiting_body": "Earth",
                        "relative_velocity": {
                            "kilometers_per_hour": "15835.1055445421",
                            "kilometers_per_second": "4.398640429",
                            "miles_per_hour": "9839.3187757184"
                        }
                    }
                ],
                "estimated_diameter": {
                    "feet": {
                        "estimated_diameter_max": 426.6041048727,
                        "estimated_diameter_min": 190.7831555951
                    },
                    "kilometers": {
                        "estimated_diameter_max": 0.130028927,
                        "estimated_diameter_min": 0.058150704
                    },
                    "meters": {
                        "estimated_diameter_max": 130.0289270043,
                        "estimated_diameter_min": 58.1507039646
                    },
                    "miles": {
                        "estimated_diameter_max": 0.0807962044,
                        "estimated_diameter_min": 0.0361331611
                    }
                },
                "id": "3767319",
                "is_potentially_hazardous_asteroid": false,
                "is_sentry_object": false,
                "links": {
                    "self": "http://www.neowsapp.com/rest/v1/neo/3767319?api_key=13L6o25sYaUm7Ac1Op2e09FrWudmH6N0rRhVBoCx"
                },
                "name": "(2017 BP91)",
                "nasa_jpl_url": "http://ssd.jpl.nasa.gov/sbdb.cgi?sstr=3767319",
                "neo_reference_id": "3767319",
                "orbital_data": {
                    "aphelion_distance": "1.526879776605353",
                    "ascending_node_longitude": "103.6958048172061",
                    "data_arc_in_days": 1040,
                    "eccentricity": ".1436249272734414",
                    "epoch_osculation": "2458600.5",
                    "equinox": "J2000",
                    "first_observation_date": "2014-04-22",
                    "inclination": "5.475424454581956",
                    "jupiter_tisserand_invariant": "4.895",
                    "last_observation_date": "2017-02-25",
                    "mean_anomaly": "161.9385409922992",
                    "mean_motion": ".6388843192556526",
                    "minimum_orbit_intersection": ".16312",
                    "observations_used": 29,
                    "orbit_class": {
                        "orbit_class_description": "Near-Earth asteroid orbits similar to that of 1221 Amor",
                        "orbit_class_range": "1.017 AU < q (perihelion) < 1.3 AU",
                        "orbit_class_type": "AMO"
                    },
                    "orbit_determination_date": "2019-05-14 07:24:41",
                    "orbit_id": "8",
                    "orbit_uncertainty": "2",
                    "orbital_period": "563.4822911594177",
                    "perihelion_argument": "22.77889709889866",
                    "perihelion_distance": "1.143365931042247",
                    "perihelion_time": "2458347.029166374017",
                    "semi_major_axis": "1.3351228538238"
                }
            }
        ]
    }
}
